{"type": "FeatureCollection", "features": [ {"type": "Feature", "properties": {"norad_id": 38953, "name": "BEIDOU-2 G6 (C02)", "group": "beidou", "lat": 3.885660042182929, "lon": 155.55314567380896, "alt_km": 35814.10096676979, "timestamp": "2025-12-08T23:34:04.234440+00:00", "meta": {"OBJECT_NAME": "BEIDOU-2 G6 (C02)", "OBJECT_ID": "2012-059A", "EPOCH": "2025-12-08T08:51:56.972160", "MEAN_MOTION": 1.00270135, "ECCENTRICITY": 0.00076794, "INCLINATION": 3.938, "RA_OF_ASC_NODE": 75.5466, "ARG_OF_PERICENTER": 289.5213, "MEAN_ANOMALY": 289.3333, "EPHEMERIS_TYPE": 0, "CLASSIFICATION_TYPE": "U", "NORAD_CAT_ID": 38953, "ELEMENT_SET_NO": 999, "REV_AT_EPOCH": 4799, "BSTAR": 0, "MEAN_MOTION_DOT": -1.74e-06, "MEAN_MOTION_DDOT": 0}, "tle": {"line1": "1 38953U 12059A   25342.36940940 -.00000174  00000+0  00000+0 0  9997", "line2": "2 38953   3.9380  75.5466 0007679 289.5213 289.3333  1.00270135 47994"}}, "geometry": {"type": "Point", "coordinates": [155.55314567380896, 3.885660042182929]}}, {"type": "Feature", "properties": {"norad_id": 40748, "name": "BEIDOU-3S M2S (C58)", "group": "beidou", "lat": -4.142721002087666, "lon": 131.47547418732077, "alt_km": 21525.056580565717, "timestamp": "2025-12-08T23:34:04.234474+00:00", "meta": {"OBJECT_NAME": "BEIDOU-3S M2S (C58)", "OBJECT_ID": "2015-037A", "EPOCH": "2025-12-08T04:02:52.726848", "MEAN_MOTION": 1.86229067, "ECCENTRICITY": 0.0012292, "INCLINATION": 55.0429, "RA_OF_ASC_NODE": 308.6206, "ARG_OF_PERICENTER": 268.2932, "MEAN_ANOMALY": 91.5527, "EPHEMERIS_TYPE": 0, "CLASSIFICATION_TYPE": "U", "NORAD_CAT_ID": 40748, "ELEMENT_SET_NO": 999, "REV_AT_EPOCH": 7056, "BSTAR": 0, "MEAN_MOTION_DOT": -7.2e-07, "MEAN_MOTION_DDOT": 0}, "tle": {"line1": "1 40748U 15037A   25342.16866582 -.00000072  00000+0  00000+0 0  9995", "line2": "2 40748  55.0429 308.6206 0012292 268.2932  91.5527  1.86229067 70561"}}, "geometry": {"type": "Point", "coordinates": [131.47547418732077, -4.142721002087666]}}, {"type": "Feature", "properties": {"norad_id": 40749, "name": "BEIDOU-3S M1S (C57)", "group": "beidou", "lat": 24.69188645035133, "lon": -32.68597199233422, "alt_km": 21515.170806852075, "timestamp": "2025-12-08T23:34:04.234490+00:00", "meta": {"OBJECT_NAME": "BEIDOU-3S M1S (C57)", "OBJECT_ID": "2015-037B", "EPOCH": "2025-12-01T22:57:46.412352", "MEAN_MOTION": 1.86253762, "ECCENTRICITY": 0.0003321, "INCLINATION": 55.0451, "RA_OF_ASC_NODE": 308.8236, "ARG_OF_PERICENTER": 355.9906, "MEAN_ANOMALY": 3.9975, "EPHEMERIS_TYPE": 0, "CLASSIFICATION_TYPE": "U", "NORAD_CAT_ID": 40749, "ELEMENT_SET_NO": 999, "REV_AT_EPOCH": 7045, "BSTAR": 0, "MEAN_MOTION_DOT": -6e-07, "MEAN_MOTION_DDOT": 0}, "tle": {"line1": "1 40749U 15037B   25335.95678718 -.00000060  00000+0  00000+0 0  9994", "line2": "2 40749  55.0451 308.8236 0003321 355.9906   3.9975  1.86253762 70451"}}, "geometry": {"type": "Point", "coordinates": [-32.68597199233422, 24.69188645035133]}}, {"type": "Feature", "properties": {"norad_id": 40938, "name": "BEIDOU-3S IGSO-2S (C56)", "group": "beidou", "lat": -49.4762764379483, "lon": 166.67618718750285, "alt_km": 35739.97507563722, "timestamp": "2025-12-08T23:34:04.234503+00:00", "meta": {"OBJECT_NAME": "BEIDOU-3S IGSO-2S (C56)", "OBJECT_ID": "2015-053A", "EPOCH": "2025-12-07T17:59:38.817312", "MEAN_MOTION": 1.00270783, "ECCENTRICITY": 0.0060962, "INCLINATION": 49.5194, "RA_OF_ASC_NODE": 261.0646, "ARG_OF_PERICENTER": 188.6217, "MEAN_ANOMALY": 353.0712, "EPHEMERIS_TYPE": 0, "CLASSIFICATION_TYPE": "U", "NORAD_CAT_ID": 40938, "ELEMENT_SET_NO": 999, "REV_AT_EPOCH": 3743, "BSTAR": 0, "MEAN_MOTION_DOT": -1.42e-06, "MEAN_MOTION_DDOT": 0}, "tle": {"line1": "1 40938U 15053A   25341.74975483 -.00000142  00000+0  00000+0 0  9996", "line2": "2 40938  49.5194 261.0646 0060962 188.6217 353.0712  1.00270783 37435"}}, "geometry": {"type": "Point", "coordinates": [166.67618718750285, -49.4762764379483]}}, {"type": "Feature", "properties": {"norad_id": 41434, "name": "BEIDOU-2 IGSO-6 (C13)", "group": "beidou", "lat": 47.0123571802524, "lon": -178.34873289951133, "alt_km": 35865.97423149346, "timestamp": "2025-12-08T23:34:04.234515+00:00", "meta": {"OBJECT_NAME": "BEIDOU-2 IGSO-6 (C13)", "OBJECT_ID": "2016-021A", "EPOCH": "2025-12-01T15:57:35.287200", "MEAN_MOTION": 1.00256562, "ECCENTRICITY": 0.00591323, "INCLINATION": 59.9483, "RA_OF_ASC_NODE": 40.0119, "ARG_OF_PERICENTER": 231.2834, "MEAN_ANOMALY": 130.8807, "EPHEMERIS_TYPE": 0, "CLASSIFICATION_TYPE": "U", "NORAD_CAT_ID": 41434, "ELEMENT_SET_NO": 999, "REV_AT_EPOCH": 3550, "BSTAR": 0, "MEAN_MOTION_DOT": -1.55e-06, "MEAN_MOTION_DDOT": 0}, "tle": {"line1": "1 41434U 16021A   25335.66499175 -.00000155  00000+0  00000+0 0  9991", "line2": "2 41434  59.9483  40.0119 0059132 231.2834 130.8807  1.00256562 35501"}}, "geometry": {"type": "Point", "coordinates": [-178.34873289951133, 47.0123571802524]}}, {"type": "Feature", "properties": {"norad_id": 41586, "name": "BEIDOU-2 G7 (C03)", "group": "beidou", "lat": 1.5873690845254507, "lon": -177.97694647130135, "alt_km": 35794.31630668494, "timestamp": "2025-12-08T23:34:04.234528+00:00", "meta": {"OBJECT_NAME": "BEIDOU-2 G7 (C03)", "OBJECT_ID": "2016-037A", "EPOCH": "2025-12-08T14:07:49.219968", "MEAN_MOTION": 1.00269211, "ECCENTRICITY": 0.00044548, "INCLINATION": 1.7469, "RA_OF_ASC_NODE": 67.7603, "ARG_OF_PERICENTER": 0.1596, "MEAN_ANOMALY": 332.1013, "EPHEMERIS_TYPE": 0, "CLASSIFICATION_TYPE": "U", "NORAD_CAT_ID": 41586, "ELEMENT_SET_NO": 999, "REV_AT_EPOCH": 497, "BSTAR": 0, "MEAN_MOTION_DOT": -3.51e-06, "MEAN_MOTION_DDOT": 0}, "tle": {"line1": "1 41586U 16037A   25342.58876412 -.00000351  00000+0  00000+0 0  9996", "line2": "2 41586   1.7469  67.7603 0004454   0.1596 332.1013  1.00269211  4975"}}, "geometry": {"type": "Point", "coordinates": [-177.97694647130135, 1.5873690845254507]}}, {"type": "Feature", "properties": {"norad_id": 43001, "name": "BEIDOU-3 M1 (C19)", "group": "beidou", "lat": -37.071887513861746, "lon": 39.4193052802247, "alt_km": 21507.775632922832, "timestamp": "2025-12-08T23:34:04.234539+00:00", "meta": {"OBJECT_NAME": "BEIDOU-3 M1 (C19)", "OBJECT_ID": "2017-069A", "EPOCH": "2025-12-07T10:33:38.997216", "MEAN_MOTION": 1.86230818, "ECCENTRICITY": 0.00090499, "INCLINATION": 56.5227, "RA_OF_ASC_NODE": 69.4088, "ARG_OF_PERICENTER": 303.7178, "MEAN_ANOMALY": 56.2144, "EPHEMERIS_TYPE": 0, "CLASSIFICATION_TYPE": "U", "NORAD_CAT_ID": 43001, "ELEMENT_SET_NO": 999, "REV_AT_EPOCH": 5503, "BSTAR": 0, "MEAN_MOTION_DOT": -4.4e-07, "MEAN_MOTION_DDOT": 0}, "tle": {"line1": "1 43001U 17069A   25341.44003469 -.00000044  00000+0  00000+0 0  9993", "line2": "2 43001  56.5227  69.4088 0009049 303.7178  56.2144  1.86230818 55035"}}, "geometry": {"type": "Point", "coordinates": [39.4193052802247, -37.071887513861746]}}, {"type": "Feature", "properties": {"norad_id": 43002, "name": "BEIDOU-3 M2 (C20)", "group": "beidou", "lat": -4.067465870422622, "lon": 66.71056962153781, "alt_km": 21512.68218616381, "timestamp": "2025-12-08T23:34:04.234551+00:00", "meta": {"OBJECT_NAME": "BEIDOU-3 M2 (C20)", "OBJECT_ID": "2017-069B", "EPOCH": "2025-12-08T10:51:18.927360", "MEAN_MOTION": 1.86230678, "ECCENTRICITY": 0.00063835, "INCLINATION": 56.5226, "RA_OF_ASC_NODE": 69.4117, "ARG_OF_PERICENTER": 330.8717, "MEAN_ANOMALY": 29.1139, "EPHEMERIS_TYPE": 0, "CLASSIFICATION_TYPE": "U", "NORAD_CAT_ID": 43002, "ELEMENT_SET_NO": 999, "REV_AT_EPOCH": 5504, "BSTAR": 0, "MEAN_MOTION_DOT": -4.4e-07, "MEAN_MOTION_DDOT": 0}, "tle": {"line1": "1 43002U 17069B   25342.45230240 -.00000044  00000+0  00000+0 0  9995", "line2": "2 43002  56.5226  69.4117 0006383 330.8717  29.1139  1.86230678 55044"}}, "geometry": {"type": "Point", "coordinates": [66.71056962153781, -4.067465870422622]}}, {"type": "Feature", "properties": {"norad_id": 43107, "name": "BEIDOU-3 M7 (C27)", "group": "beidou", "lat": 10.154637739445386, "lon": 121.58617827436812, "alt_km": 21527.93582783259, "timestamp": "2025-12-08T23:34:04.234562+00:00", "meta": {"OBJECT_NAME": "BEIDOU-3 M7 (C27)", "OBJECT_ID": "2018-003A", "EPOCH": "2025-12-08T04:41:21.311520", "MEAN_MOTION": 1.86232319, "ECCENTRICITY": 0.00027287, "INCLINATION": 54.5008, "RA_OF_ASC_NODE": 308.973, "ARG_OF_PERICENTER": 69.0594, "MEAN_ANOMALY": 290.9569, "EPHEMERIS_TYPE": 0, "CLASSIFICATION_TYPE": "U", "NORAD_CAT_ID": 43107, "ELEMENT_SET_NO": 999, "REV_AT_EPOCH": 5379, "BSTAR": 0, "MEAN_MOTION_DOT": -7.3e-07, "MEAN_MOTION_DDOT": 0}, "tle": {"line1": "1 43107U 18003A   25342.19538555 -.00000073  00000+0  00000+0 0  9993", "line2": "2 43107  54.5008 308.9730 0002728  69.0594 290.9569  1.86232319 53790"}}, "geometry": {"type": "Point", "coordinates": [121.58617827436812, 10.154637739445386]}}, {"type": "Feature", "properties": {"norad_id": 43108, "name": "BEIDOU-3 M8 (C28)", "group": "beidou", "lat": -19.561587085074834, "lon": 143.5940118200983, "alt_km": 21526.515454870245, "timestamp": "2025-12-08T23:34:04.234577+00:00", "meta": {"OBJECT_NAME": "BEIDOU-3 M8 (C28)", "OBJECT_ID": "2018-003B", "EPOCH": "2025-12-08T03:21:57.743424", "MEAN_MOTION": 1.86230794, "ECCENTRICITY": 0.00047249, "INCLINATION": 54.4937, "RA_OF_ASC_NODE": 308.9576, "ARG_OF_PERICENTER": 275.4662, "MEAN_ANOMALY": 84.4669, "EPHEMERIS_TYPE": 0, "CLASSIFICATION_TYPE": "U", "NORAD_CAT_ID": 43108, "ELEMENT_SET_NO": 999, "REV_AT_EPOCH": 5380, "BSTAR": 0, "MEAN_MOTION_DOT": -7.3e-07, "MEAN_MOTION_DDOT": 0}, "tle": {"line1": "1 43108U 18003B   25342.14025166 -.00000073  00000+0  00000+0 0  9998", "line2": "2 43108  54.4937 308.9576 0004724 275.4662  84.4669  1.86230794 53800"}}, "geometry": {"type": "Point", "coordinates": [143.5940118200983, -19.561587085074834]}}]}